[{"OBJECT_NAME":"SL-8 R/B","OBJECT_ID":"1991-006B","EPOCH":"2026-03-22T06:16:44.781888","MEAN_MOTION":13.77496035,"ECCENTRICITY":0.00222894,"INCLINATION":82.9456,"RA_OF_ASC_NODE":160.6998,"ARG_OF_PERICENTER":3.7635,"MEAN_ANOMALY":50.0772,"EPHEMERIS_TYPE":0,"CLASSIFICATION_TYPE":"U","NORAD_CAT_ID":21088,"ELEMENT_SET_NO":999,"REV_AT_EPOCH":76580,"BSTAR":8.4941855e-5,"MEAN_MOTION_DOT":1.0e-6,"MEAN_MOTION_DDOT":0},{"OBJECT_NAME":"OKEAN-3","OBJECT_ID":"1991-039A","EPOCH":"2026-03-22T02:43:10.685568","MEAN_MOTION":15.04881102,"ECCENTRICITY":0.00126634,"INCLINATION":82.5179,"RA_OF_ASC_NODE":324.8084,"ARG_OF_PERICENTER":290.5696,"MEAN_ANOMALY":69.4172,"EPHEMERIS_TYPE":0,"CLASSIFICATION_TYPE":"U","NORAD_CAT_ID":21397,"ELEMENT_SET_NO":999,"REV_AT_EPOCH":86690,"BSTAR":0.00018681413,"MEAN_MOTION_DOT":2.673e-5,"MEAN_MOTION_DDOT":0},{"OBJECT_NAME":"COSMOS 2151","OBJECT_ID":"1991-042A","EPOCH":"2026-03-22T05:21:44.243136","MEAN_MOTION":15.00153253,"ECCENTRICITY":0.00131066,"INCLINATION":82.4939,"RA_OF_ASC_NODE":71.5815,"ARG_OF_PERICENTER":25.3945,"MEAN_ANOMALY":334.792,"EPHEMERIS_TYPE":0,"CLASSIFICATION_TYPE":"U","NORAD_CAT_ID":21422,"ELEMENT_SET_NO":999,"REV_AT_EPOCH":86507,"BSTAR":0.0001600958,"MEAN_MOTION_DOT":2.028e-5,"MEAN_MOTION_DDOT":0},{"OBJECT_NAME":"SL-14 R/B","OBJECT_ID":"1991-042B","EPOCH":"2026-03-21T20:16:32.054016","MEAN_MOTION":14.81841645,"ECCENTRICITY":0.00166094,"INCLINATION":82.4945,"RA_OF_ASC_NODE":208.7855,"ARG_OF_PERICENTER":196.5076,"MEAN_ANOMALY":163.56,"EPHEMERIS_TYPE":0,"CLASSIFICATION_TYPE":"U","NORAD_CAT_ID":21423,"ELEMENT_SET_NO":999,"REV_AT_EPOCH":85487,"BSTAR":5.8402369e-5,"MEAN_MOTION_DOT":4.86e-6,"MEAN_MOTION_DDOT":0},{"OBJECT_NAME":"ERS-1","OBJECT_ID":"1991-050A","EPOCH":"2026-03-22T06:41:27.488832","MEAN_MOTION":14.39458373,"ECCENTRICITY":0.00323385,"INCLINATION":98.7872,"RA_OF_ASC_NODE":99.8294,"ARG_OF_PERICENTER":163.1087,"MEAN_ANOMALY":197.1184,"EPHEMERIS_TYPE":0,"CLASSIFICATION_TYPE":"U","NORAD_CAT_ID":21574,"ELEMENT_SET_NO":999,"REV_AT_EPOCH":81754,"BSTAR":0.00010642794,"MEAN_MOTION_DOT":2.87e-6,"MEAN_MOTION_DDOT":0},{"OBJECT_NAME":"ARIANE 40 R/B","OBJECT_ID":"1991-050F","EPOCH":"2026-03-22T03:51:59.086656","MEAN_MOTION":14.4290208,"ECCENTRICITY":0.00039253,"INCLINATION":98.1986,"RA_OF_ASC_NODE":132.928,"ARG_OF_PERICENTER":53.7981,"MEAN_ANOMALY":306.3572,"EPHEMERIS_TYPE":0,"CLASSIFICATION_TYPE":"U","NORAD_CAT_ID":21610,"ELEMENT_SET_NO":999,"REV_AT_EPOCH":82079,"BSTAR":9.2712531e-5,"MEAN_MOTION_DOT":2.68e-6,"MEAN_MOTION_DDOT":0},{"OBJECT_NAME":"INTERCOSMOS 25","OBJECT_ID":"1991-086A","EPOCH":"2026-03-22T00:57:46.001664","MEAN_MOTION":12.12042016,"ECCENTRICITY":0.14867619,"INCLINATION":82.6029,"RA_OF_ASC_NODE":302.5429,"ARG_OF_PERICENTER":90.3227,"MEAN_ANOMALY":286.7692,"EPHEMERIS_TYPE":0,"CLASSIFICATION_TYPE":"U","NORAD_CAT_ID":21819,"ELEMENT_SET_NO":999,"REV_AT_EPOCH":49818,"BSTAR":0.00031083977,"MEAN_MOTION_DOT":1.623e-5,"MEAN_MOTION_DDOT":0},{"OBJECT_NAME":"SL-8 R/B","OBJECT_ID":"1992-008B","EPOCH":"2026-03-22T06:02:23.148384","MEAN_MOTION":13.75969553,"ECCENTRICITY":0.00359163,"INCLINATION":82.9224,"RA_OF_ASC_NODE":258.4308,"ARG_OF_PERICENTER":99.3793,"MEAN_ANOMALY":73.244,"EPHEMERIS_TYPE":0,"CLASSIFICATION_TYPE":"U","NORAD_CAT_ID":21876,"ELEMENT_SET_NO":999,"REV_AT_EPOCH":71114,"BSTAR":-1.5612663e-5,"MEAN_MOTION_DOT":0,"MEAN_MOTION_DDOT":0},{"OBJECT_NAME":"SL-8 R/B","OBJECT_ID":"1992-020B","EPOCH":"2026-03-22T06:39:14.959872","MEAN_MOTION":13.75550305,"ECCENTRICITY":0.00275874,"INCLINATION":82.9317,"RA_OF_ASC_NODE":144.4164,"ARG_OF_PERICENTER":261.9676,"MEAN_ANOMALY":164.8532,"EPHEMERIS_TYPE":0,"CLASSIFICATION_TYPE":"U","NORAD_CAT_ID":21938,"ELEMENT_SET_NO":999,"REV_AT_EPOCH":70286,"BSTAR":2.8664663e-5,"MEAN_MOTION_DOT":4.3e-7,"MEAN_MOTION_DDOT":0},{"OBJECT_NAME":"USA 81","OBJECT_ID":"1992-023A","EPOCH":"2026-03-22T02:14:35.144448","MEAN_MOTION":14.32371761,"ECCENTRICITY":0.0002073,"INCLINATION":85.0061,"RA_OF_ASC_NODE":124.284,"ARG_OF_PERICENTER":69.5102,"MEAN_ANOMALY":290.6313,"EPHEMERIS_TYPE":0,"CLASSIFICATION_TYPE":"U","NORAD_CAT_ID":21949,"ELEMENT_SET_NO":999,"REV_AT_EPOCH":9656,"BSTAR":4.9559707e-5,"MEAN_MOTION_DOT":1.54e-6,"MEAN_MOTION_DDOT":0},{"OBJECT_NAME":"COSMOS 2219","OBJECT_ID":"1992-076A","EPOCH":"2026-03-22T04:23:39.962688","MEAN_MOTION":14.14092904,"ECCENTRICITY":0.00182513,"INCLINATION":71.0638,"RA_OF_ASC_NODE":351.9539,"ARG_OF_PERICENTER":189.2275,"MEAN_ANOMALY":170.8515,"EPHEMERIS_TYPE":0,"CLASSIFICATION_TYPE":"U","NORAD_CAT_ID":22219,"ELEMENT_SET_NO":999,"REV_AT_EPOCH":72014,"BSTAR":-5.1346415e-5,"MEAN_MOTION_DOT":-1.45e-6,"MEAN_MOTION_DDOT":0},{"OBJECT_NAME":"SL-16 R/B","OBJECT_ID":"1992-076B","EPOCH":"2026-03-22T06:19:00.382368","MEAN_MOTION":14.16862273,"ECCENTRICITY":0.00106338,"INCLINATION":71.0007,"RA_OF_ASC_NODE":161.8902,"ARG_OF_PERICENTER":73.0029,"MEAN_ANOMALY":347.4931,"EPHEMERIS_TYPE":0,"CLASSIFICATION_TYPE":"U","NORAD_CAT_ID":22220,"ELEMENT_SET_NO":999,"REV_AT_EPOCH":72361,"BSTAR":0.00015167125,"MEAN_MOTION_DOT":2.56e-6,"MEAN_MOTION_DDOT":0},{"OBJECT_NAME":"COSMOS 2221","OBJECT_ID":"1992-080A","EPOCH":"2026-03-22T00:13:45.964128","MEAN_MOTION":14.96248277,"ECCENTRICITY":0.00150679,"INCLINATION":82.5001,"RA_OF_ASC_NODE":267.2765,"ARG_OF_PERICENTER":146.6187,"MEAN_ANOMALY":213.5988,"EPHEMERIS_TYPE":0,"CLASSIFICATION_TYPE":"U","NORAD_CAT_ID":22236,"ELEMENT_SET_NO":999,"REV_AT_EPOCH":78263,"BSTAR":0.00017298572,"MEAN_MOTION_DOT":1.982e-5,"MEAN_MOTION_DDOT":0},{"OBJECT_NAME":"SL-16 R/B","OBJECT_ID":"1992-093B","EPOCH":"2026-03-22T02:33:45.952704","MEAN_MOTION":14.15450065,"ECCENTRICITY":0.00063105,"INCLINATION":71.0237,"RA_OF_ASC_NODE":338.2014,"ARG_OF_PERICENTER":281.2596,"MEAN_ANOMALY":78.7817,"EPHEMERIS_TYPE":0,"CLASSIFICATION_TYPE":"U","NORAD_CAT_ID":22285,"ELEMENT_SET_NO":999,"REV_AT_EPOCH":71491,"BSTAR":0.00019542156,"MEAN_MOTION_DOT":3.34e-6,"MEAN_MOTION_DDOT":0},{"OBJECT_NAME":"COSMOS 2228","OBJECT_ID":"1992-094A","EPOCH":"2026-03-22T05:14:12.410880","MEAN_MOTION":14.97251268,"ECCENTRICITY":0.00165993,"INCLINATION":82.5179,"RA_OF_ASC_NODE":225.3136,"ARG_OF_PERICENTER":258.8826,"MEAN_ANOMALY":101.053,"EPHEMERIS_TYPE":0,"CLASSIFICATION_TYPE":"U","NORAD_CAT_ID":22286,"ELEMENT_SET_NO":999,"REV_AT_EPOCH":77793,"BSTAR":0.00024416624,"MEAN_MOTION_DOT":2.86e-5,"MEAN_MOTION_DDOT":0},{"OBJECT_NAME":"SL-16 R/B","OBJECT_ID":"1993-016B","EPOCH":"2026-03-22T06:57:15.870528","MEAN_MOTION":14.1530662,"ECCENTRICITY":0.00123548,"INCLINATION":71.008,"RA_OF_ASC_NODE":188.7189,"ARG_OF_PERICENTER":297.7085,"MEAN_ANOMALY":62.2784,"EPHEMERIS_TYPE":0,"CLASSIFICATION_TYPE":"U","NORAD_CAT_ID":22566,"ELEMENT_SET_NO":999,"REV_AT_EPOCH":70395,"BSTAR":-9.4604779e-5,"MEAN_MOTION_DOT":-2.32e-6,"MEAN_MOTION_DDOT":0},{"OBJECT_NAME":"COSMOS 2242","OBJECT_ID":"1993-024A","EPOCH":"2026-03-22T04:56:19.618368","MEAN_MOTION":14.96599177,"ECCENTRICITY":0.00149108,"INCLINATION":82.5153,"RA_OF_ASC_NODE":254.7412,"ARG_OF_PERICENTER":262.85,"MEAN_ANOMALY":97.1027,"EPHEMERIS_TYPE":0,"CLASSIFICATION_TYPE":"U","NORAD_CAT_ID":22626,"ELEMENT_SET_NO":999,"REV_AT_EPOCH":78226,"BSTAR":0.00017647692,"MEAN_MOTION_DOT":2.039e-5,"MEAN_MOTION_DDOT":0}]
